[
    {
        "Altitude(m)": 604983.0528502759,
        "Argument of Periapsis(deg)": 0.0,
        "Eccentricity": 0.0,
        "Inclination(deg)": 60.0,
        "Latitude(deg)": -0.09254857365444503,
        "Longitude(deg)": 65.08391647011997,
        "Mean Anomaly(deg)": -180.0,
        "RAAN(deg)": 345.0,
        "Satellite Name": "Test1 1529",
        "Satellite Number": 1529,
        "Semi-Major Axis(m)": 6980739.136638005,
        "Time(s)": 0
    },
    {
        "Altitude(m)": 605055.3316148156,
        "Argument of Periapsis(deg)": 0.00010418945913296404,
        "Eccentricity": 0.0,
        "Inclination(deg)": 60.0,
        "Latitude(deg)": -0.632958246276428,
        "Longitude(deg)": 65.35204178011094,
        "Mean Anomaly(deg)": -179.37989385453815,
        "RAAN(deg)": 344.99957995086027,
        "Satellite Name": "Test1 1529",
        "Satellite Number": 1529,
        "Semi-Major Axis(m)": 6980739.136638005,
        "Time(s)": 10
    }
]